CTC2_L_00597001-01
1 10000U 23435LZ  26075.70049769  .00000000  00000+0  00000-0 0  9999
2 10000  60.0000   0.0000 0000000   0.0000   0.0000  6.30405269    15
CTC2_L_00597001-02
1 10001U 24734TI  26075.70049769  .00000000  00000+0  00000-0 0  9993
2 10001  60.0000   0.0000 0000000   0.0000  36.0000  6.30405269    15
CTC2_L_00597001-03
1 10002U 22437RC  26075.70049769  .00000000  00000+0  00000-0 0  9992
2 10002  60.0000   0.0000 0000000   0.0000  72.0000  6.30405269    16
CTC2_L_00597001-04
1 10003U 24484QL  26075.70049769  .00000000  00000+0  00000-0 0  9997
2 10003  60.0000   0.0000 0000000   0.0000 108.0000  6.30405269    17
CTC2_L_00597001-05
1 10004U 25679RM  26075.70049769  .00000000  00000+0  00000-0 0  9995
2 10004  60.0000   0.0000 0000000   0.0000 144.0000  6.30405269    18
CTC2_L_00597001-06
1 10005U 24279PP  26075.70049769  .00000000  00000+0  00000-0 0  9991
2 10005  60.0000   0.0000 0000000   0.0000 180.0000  6.30405269    19
CTC2_L_00597001-07
1 10006U 24176JD  26075.70049769  .00000000  00000+0  00000-0 0  9998
2 10006  60.0000   0.0000 0000000   0.0000 216.0000  6.30405269    10
CTC2_L_00597001-08
1 10007U 24180BB  26075.70049769  .00000000  00000+0  00000-0 0  9994
2 10007  60.0000   0.0000 0000000   0.0000 252.0000  6.30405269    11
CTC2_L_00597001-09
1 10008U 24641CA  26075.70049769  .00000000  00000+0  00000-0 0  9997
2 10008  60.0000   0.0000 0000000   0.0000 288.0000  6.30405269    11
CTC2_L_00597001-10
1 10009U 22017UQ  26075.70049769  .00000000  00000+0  00000-0 0  9993
2 10009  60.0000   0.0000 0000000   0.0000 324.0000  6.30405269    13
CTC2_L_00597002-01
1 10010U 25703BA  26075.70049769  .00000000  00000+0  00000-0 0  9990
2 10010  60.0000  30.0000 0000000   0.0000  12.0000  6.30405269    12
CTC2_L_00597002-02
1 10011U 26913JC  26075.70049769  .00000000  00000+0  00000-0 0  9995
2 10011  60.0000  30.0000 0000000   0.0000  48.0000  6.30405269    12
CTC2_L_00597002-03
1 10012U 23787FL  26075.70049769  .00000000  00000+0  00000-0 0  9992
2 10012  60.0000  30.0000 0000000   0.0000  84.0000  6.30405269    13
CTC2_L_00597002-04
1 10013U 25078LQ  26075.70049769  .00000000  00000+0  00000-0 0  9998
2 10013  60.0000  30.0000 0000000   0.0000 120.0000  6.30405269    15
CTC2_L_00597002-05
1 10014U 23670XR  26075.70049769  .00000000  00000+0  00000-0 0  9995
2 10014  60.0000  30.0000 0000000   0.0000 156.0000  6.30405269    15
CTC2_L_00597002-06
1 10015U 23516DK  26075.70049769  .00000000  00000+0  00000-0 0  9995
2 10015  60.0000  30.0000 0000000   0.0000 192.0000  6.30405269    16
CTC2_L_00597002-07
1 10016U 25446EX  26075.70049769  .00000000  00000+0  00000-0 0  9990
2 10016  60.0000  30.0000 0000000   0.0000 228.0000  6.30405269    17
CTC2_L_00597002-08
1 10017U 25976FU  26075.70049769  .00000000  00000+0  00000-0 0  9999
2 10017  60.0000  30.0000 0000000   0.0000 264.0000  6.30405269    18
CTC2_L_00597002-09
1 10018U 25928MH  26075.70049769  .00000000  00000+0  00000-0 0  9997
2 10018  60.0000  30.0000 0000000   0.0000 300.0000  6.30405269    10
CTC2_L_00597002-10
1 10019U 26655YV  26075.70049769  .00000000  00000+0  00000-0 0  9996
2 10019  60.0000  30.0000 0000000   0.0000 336.0000  6.30405269    10
CTC2_L_00597003-01
1 10020U 24012DX  26075.70049769  .00000000  00000+0  00000-0 0  9993
2 10020  60.0000  60.0000 0000000   0.0000  24.0000  6.30405269    19
CTC2_L_00597003-02
1 10021U 25653EP  26075.70049769  .00000000  00000+0  00000-0 0  9996
2 10021  60.0000  60.0000 0000000   0.0000  60.0000  6.30405269    10
CTC2_L_00597003-03
1 10022U 26012YX  26075.70049769  .00000000  00000+0  00000-0 0  9997
2 10022  60.0000  60.0000 0000000   0.0000  96.0000  6.30405269    10
CTC2_L_00597003-04
1 10023U 23587SR  26075.70049769  .00000000  00000+0  00000-0 0  9992
2 10023  60.0000  60.0000 0000000   0.0000 132.0000  6.30405269    12
CTC2_L_00597003-05
1 10024U 22701UL  26075.70049769  .00000000  00000+0  00000-0 0  9990
2 10024  60.0000  60.0000 0000000   0.0000 168.0000  6.30405269    12
CTC2_L_00597003-06
1 10025U 25410SJ  26075.70049769  .00000000  00000+0  00000-0 0  9991
2 10025  60.0000  60.0000 0000000   0.0000 204.0000  6.30405269    14
CTC2_L_00597003-07
1 10026U 23633DW  26075.70049769  .00000000  00000+0  00000-0 0  9997
2 10026  60.0000  60.0000 0000000   0.0000 240.0000  6.30405269    15
CTC2_L_00597003-08
1 10027U 22122DR  26075.70049769  .00000000  00000+0  00000-0 0  9990
2 10027  60.0000  60.0000 0000000   0.0000 276.0000  6.30405269    15
CTC2_L_00597003-09
1 10028U 25808LY  26075.70049769  .00000000  00000+0  00000-0 0  9995
2 10028  60.0000  60.0000 0000000   0.0000 312.0000  6.30405269    17
CTC2_L_00597003-10
1 10029U 24248KT  26075.70049769  .00000000  00000+0  00000-0 0  9993
2 10029  60.0000  60.0000 0000000   0.0000 348.0000  6.30405269    17
CTC2_L_00597004-01
1 10030U 25431QC  26075.70049769  .00000000  00000+0  00000-0 0  9990
2 10030  60.0000  90.0000 0000000   0.0000  36.0000  6.30405269    16
CTC2_L_00597004-02
1 10031U 26537B   26075.70049769  .00000000  00000+0  00000-0 0  9999
2 10031  60.0000  90.0000 0000000   0.0000  72.0000  6.30405269    17
CTC2_L_00597004-03
1 10032U 23414I   26075.70049769  .00000000  00000+0  00000-0 0  9991
2 10032  60.0000  90.0000 0000000   0.0000 108.0000  6.30405269    18
CTC2_L_00597004-04
1 10033U 24683LM  26075.70049769  .00000000  00000+0  00000-0 0  9991
2 10033  60.0000  90.0000 0000000   0.0000 144.0000  6.30405269    19
CTC2_L_00597004-05
1 10034U 22390RE  26075.70049769  .00000000  00000+0  00000-0 0  9995
2 10034  60.0000  90.0000 0000000   0.0000 180.0000  6.30405269    10
CTC2_L_00597004-06
1 10035U 23801NE  26075.70049769  .00000000  00000+0  00000-0 0  9994
2 10035  60.0000  90.0000 0000000   0.0000 216.0000  6.30405269    11
CTC2_L_00597004-07
1 10036U 24971YT  26075.70049769  .00000000  00000+0  00000-0 0  9994
2 10036  60.0000  90.0000 0000000   0.0000 252.0000  6.30405269    12
CTC2_L_00597004-08
1 10037U 24825XP  26075.70049769  .00000000  00000+0  00000-0 0  9993
2 10037  60.0000  90.0000 0000000   0.0000 288.0000  6.30405269    12
CTC2_L_00597004-09
1 10038U 26769EM  26075.70049769  .00000000  00000+0  00000-0 0  9993
2 10038  60.0000  90.0000 0000000   0.0000 324.0000  6.30405269    14
CTC2_L_00597004-10
1 10039U 25536SW  26075.70049769  .00000000  00000+0  00000-0 0  9995
2 10039  60.0000  90.0000 0000000   0.0000   0.0000  6.30405269    16
CTC2_L_00597005-01
1 10040U 22145DR  26075.70049769  .00000000  00000+0  00000-0 0  9990
2 10040  60.0000 120.0000 0000000   0.0000  48.0000  6.30405269    14
CTC2_L_00597005-02
1 10041U 25880XC  26075.70049769  .00000000  00000+0  00000-0 0  9990
2 10041  60.0000 120.0000 0000000   0.0000  84.0000  6.30405269    15
CTC2_L_00597005-03
1 10042U 24160HW  26075.70049769  .00000000  00000+0  00000-0 0  9991
2 10042  60.0000 120.0000 0000000   0.0000 120.0000  6.30405269    17
CTC2_L_00597005-04
1 10043U 24221ET  26075.70049769  .00000000  00000+0  00000-0 0  9990
2 10043  60.0000 120.0000 0000000   0.0000 156.0000  6.30405269    17
CTC2_L_00597005-05
1 10044U 25830DD  26075.70049769  .00000000  00000+0  00000-0 0  9998
2 10044  60.0000 120.0000 0000000   0.0000 192.0000  6.30405269    18
CTC2_L_00597005-06
1 10045U 22407IX  26075.70049769  .00000000  00000+0  00000-0 0  9996
2 10045  60.0000 120.0000 0000000   0.0000 228.0000  6.30405269    19
CTC2_L_00597005-07
1 10046U 23315TN  26075.70049769  .00000000  00000+0  00000-0 0  9996
2 10046  60.0000 120.0000 0000000   0.0000 264.0000  6.30405269    10
CTC2_L_00597005-08
1 10047U 22606UT  26075.70049769  .00000000  00000+0  00000-0 0  9999
2 10047  60.0000 120.0000 0000000   0.0000 300.0000  6.30405269    12
CTC2_L_00597005-09
1 10048U 23055WN  26075.70049769  .00000000  00000+0  00000-0 0  9999
2 10048  60.0000 120.0000 0000000   0.0000 336.0000  6.30405269    12
CTC2_L_00597005-10
1 10049U 25044FK  26075.70049769  .00000000  00000+0  00000-0 0  9990
2 10049  60.0000 120.0000 0000000   0.0000  12.0000  6.30405269    14
CTC2_L_00597006-01
1 10050U 26023V   26075.70049769  .00000000  00000+0  00000-0 0  9990
2 10050  60.0000 150.0000 0000000   0.0000  60.0000  6.30405269    12
CTC2_L_00597006-02
1 10051U 24139QD  26075.70049769  .00000000  00000+0  00000-0 0  9997
2 10051  60.0000 150.0000 0000000   0.0000  96.0000  6.30405269    12
CTC2_L_00597006-03
1 10052U 25249QO  26075.70049769  .00000000  00000+0  00000-0 0  9991
2 10052  60.0000 150.0000 0000000   0.0000 132.0000  6.30405269    14
CTC2_L_00597006-04
1 10053U 23135VW  26075.70049769  .00000000  00000+0  00000-0 0  9994
2 10053  60.0000 150.0000 0000000   0.0000 168.0000  6.30405269    14
CTC2_L_00597006-05
1 10054U 25710VE  26075.70049769  .00000000  00000+0  00000-0 0  9996
2 10054  60.0000 150.0000 0000000   0.0000 204.0000  6.30405269    16
CTC2_L_00597006-06
1 10055U 24358VT  26075.70049769  .00000000  00000+0  00000-0 0  9994
2 10055  60.0000 150.0000 0000000   0.0000 240.0000  6.30405269    17
CTC2_L_00597006-07
1 10056U 26225ZT  26075.70049769  .00000000  00000+0  00000-0 0  9990
2 10056  60.0000 150.0000 0000000   0.0000 276.0000  6.30405269    17
CTC2_L_00597006-08
1 10057U 25436JF  26075.70049769  .00000000  00000+0  00000-0 0  9994
2 10057  60.0000 150.0000 0000000   0.0000 312.0000  6.30405269    19
CTC2_L_00597006-09
1 10058U 22021GS  26075.70049769  .00000000  00000+0  00000-0 0  9992
2 10058  60.0000 150.0000 0000000   0.0000 348.0000  6.30405269    19
CTC2_L_00597006-10
1 10059U 23853BO  26075.70049769  .00000000  00000+0  00000-0 0  9997
2 10059  60.0000 150.0000 0000000   0.0000  24.0000  6.30405269    11
CTC2_L_00597007-01
1 10060U 26283ZS  26075.70049769  .00000000  00000+0  00000-0 0  9999
2 10060  60.0000 180.0000 0000000   0.0000  72.0000  6.30405269    19
CTC2_L_00597007-02
1 10061U 25678N   26075.70049769  .00000000  00000+0  00000-0 0  9997
2 10061  60.0000 180.0000 0000000   0.0000 108.0000  6.30405269    10
